SL-16 R/B               
1 22566U 93016B   26042.91202894 -.00000227  00000+0 -92075-4 0  9998
2 22566  71.0059 269.3254 0010467 349.0258  11.0635 14.15302795698528
COSMOS 2242             
1 22626U 93024A   26042.75933007  .00002366  00000+0  20575-3 0  9992
2 22626  82.5191 291.5185 0017452  36.8366 323.4051 14.96441341776519
SL-16 R/B               
1 22803U 93059B   26042.50297697 -.00000023  00000+0  12675-4 0  9990
2 22803  70.9890  66.3505 0019484 252.6103 107.2890 14.17228241675827
ARIANE 40 R/B           
1 22830U 93061H   26042.72151262  .00000201  00000+0  89420-4 0  9993
2 22830  98.4973 112.1144 0010608   7.5745 352.5598 14.32847039690388
COSMOS 2278             
1 23087U 94023A   26042.92488746 -.00000020  00000+0  14357-4 0  9996
2 23087  71.0500 229.0010 0006741  62.8021 297.3788 14.14363439641166
SL-16 R/B               
1 23088U 94023B   26042.62959208  .00000168  00000+0  11161-3 0  9991
2 23088  70.9996 125.6187 0004532 310.1757  49.8969 14.15004351642406
SL-16 R/B               
1 23343U 94074B   26042.95656394  .00000547  00000+0  80052-4 0  9994
2 23343  97.7144  74.8125 0005462 314.4271 108.7149 14.79376942683442
SL-16 R/B               
1 23405U 94077B   26042.40938294  .00000268  00000+0  16121-3 0  9993
2 23405  70.9819  47.7771 0004183 233.5739 126.4998 14.15558572612518
ARIANE 40+ R/B          
1 23561U 95021B   26042.76548895  .00000306  00000+0  11149-3 0  9997
2 23561  98.4552 114.5924 0006244 211.1703 260.2515 14.39753129615512
SL-16 R/B               
1 23705U 95058B   26042.90974936  .00000227  00000+0  14035-3 0  9991
2 23705  71.0194 234.3786 0011984 168.7895 191.3498 14.15494628564207
SL-16 R/B               
1 24298U 96051B   26042.89125330  .00000110  00000+0  86247-4 0  9993
2 24298  70.7566 229.8443 0017305 184.4249 175.6720 14.12408253518000
ORBVIEW 2 (SEASTAR)     
1 24883U 97037A   26042.90674445  .00000379  00000+0  14790-3 0  9996
2 24883  98.8522 206.5420 0003061 124.2185 235.9290 14.35474985504776
