CCSDS_OMM_VERS = 2.0
CREATION_DATE  = 
ORIGINATOR     = 

OBJECT_NAME    = SL-16 R/B
OBJECT_ID      = 1993-016B
CENTER_NAME    = EARTH
REF_FRAME      = TEME
TIME_SYSTEM    = UTC
MEAN_ELEMENT_THEORY = SGP/SGP4

EPOCH          = 2026-02-11T21:53:19.300416
MEAN_MOTION    = 14.15302795
ECCENTRICITY   = .00104671
INCLINATION    = 71.0059
RA_OF_ASC_NODE = 269.3254
ARG_OF_PERICENTER = 349.0258
MEAN_ANOMALY   = 11.0635

EPHEMERIS_TYPE = 0
CLASSIFICATION_TYPE = U
NORAD_CAT_ID   = 22566
ELEMENT_SET_NO = 999
REV_AT_EPOCH   = 69852
BSTAR          = -.92075253E-4
MEAN_MOTION_DOT = -.227E-5
MEAN_MOTION_DDOT = 0

CCSDS_OMM_VERS = 2.0
CREATION_DATE  = 
ORIGINATOR     = 

OBJECT_NAME    = COSMOS 2242
OBJECT_ID      = 1993-024A
CENTER_NAME    = EARTH
REF_FRAME      = TEME
TIME_SYSTEM    = UTC
MEAN_ELEMENT_THEORY = SGP/SGP4

EPOCH          = 2026-02-11T18:13:26.118048
MEAN_MOTION    = 14.96441341
ECCENTRICITY   = .00174522
INCLINATION    = 82.5191
RA_OF_ASC_NODE = 291.5185
ARG_OF_PERICENTER = 36.8366
MEAN_ANOMALY   = 323.4051

EPHEMERIS_TYPE = 0
CLASSIFICATION_TYPE = U
NORAD_CAT_ID   = 22626
ELEMENT_SET_NO = 999
REV_AT_EPOCH   = 77651
BSTAR          = .20574595E-3
MEAN_MOTION_DOT = .2366E-4
MEAN_MOTION_DDOT = 0

CCSDS_OMM_VERS = 2.0
CREATION_DATE  = 
ORIGINATOR     = 

OBJECT_NAME    = SL-16 R/B
OBJECT_ID      = 1993-059B
CENTER_NAME    = EARTH
REF_FRAME      = TEME
TIME_SYSTEM    = UTC
MEAN_ELEMENT_THEORY = SGP/SGP4

EPOCH          = 2026-02-11T12:04:17.210208
MEAN_MOTION    = 14.17228241
ECCENTRICITY   = .00194848
INCLINATION    = 70.9890
RA_OF_ASC_NODE = 66.3505
ARG_OF_PERICENTER = 252.6103
MEAN_ANOMALY   = 107.2890

EPHEMERIS_TYPE = 0
CLASSIFICATION_TYPE = U
NORAD_CAT_ID   = 22803
ELEMENT_SET_NO = 999
REV_AT_EPOCH   = 67582
BSTAR          = .12674685E-4
MEAN_MOTION_DOT = -.23E-6
MEAN_MOTION_DDOT = 0

CCSDS_OMM_VERS = 2.0
CREATION_DATE  = 
ORIGINATOR     = 

OBJECT_NAME    = ARIANE 40 R/B
OBJECT_ID      = 1993-061H
CENTER_NAME    = EARTH
REF_FRAME      = TEME
TIME_SYSTEM    = UTC
MEAN_ELEMENT_THEORY = SGP/SGP4

EPOCH          = 2026-02-11T17:18:58.690368
MEAN_MOTION    = 14.32847039
ECCENTRICITY   = .00106085
INCLINATION    = 98.4973
RA_OF_ASC_NODE = 112.1144
ARG_OF_PERICENTER = 7.5745
MEAN_ANOMALY   = 352.5598

EPHEMERIS_TYPE = 0
CLASSIFICATION_TYPE = U
NORAD_CAT_ID   = 22830
ELEMENT_SET_NO = 999
REV_AT_EPOCH   = 69038
BSTAR          = .89419512E-4
MEAN_MOTION_DOT = .201E-5
MEAN_MOTION_DDOT = 0

CCSDS_OMM_VERS = 2.0
CREATION_DATE  = 
ORIGINATOR     = 

OBJECT_NAME    = COSMOS 2278
OBJECT_ID      = 1994-023A
CENTER_NAME    = EARTH
REF_FRAME      = TEME
TIME_SYSTEM    = UTC
MEAN_ELEMENT_THEORY = SGP/SGP4

EPOCH          = 2026-02-11T22:11:50.276544
MEAN_MOTION    = 14.14363439
ECCENTRICITY   = .00067418
INCLINATION    = 71.0500
RA_OF_ASC_NODE = 229.0010
ARG_OF_PERICENTER = 62.8021
MEAN_ANOMALY   = 297.3788

EPHEMERIS_TYPE = 0
CLASSIFICATION_TYPE = U
NORAD_CAT_ID   = 23087
ELEMENT_SET_NO = 999
REV_AT_EPOCH   = 64116
BSTAR          = .14356942E-4
MEAN_MOTION_DOT = -.2E-6
MEAN_MOTION_DDOT = 0

CCSDS_OMM_VERS = 2.0
CREATION_DATE  = 
ORIGINATOR     = 

OBJECT_NAME    = SL-16 R/B
OBJECT_ID      = 1994-023B
CENTER_NAME    = EARTH
REF_FRAME      = TEME
TIME_SYSTEM    = UTC
MEAN_ELEMENT_THEORY = SGP/SGP4

EPOCH          = 2026-02-11T15:06:36.755712
MEAN_MOTION    = 14.15004351
ECCENTRICITY   = .00045321
INCLINATION    = 70.9996
RA_OF_ASC_NODE = 125.6187
ARG_OF_PERICENTER = 310.1757
MEAN_ANOMALY   = 49.8969

EPHEMERIS_TYPE = 0
CLASSIFICATION_TYPE = U
NORAD_CAT_ID   = 23088
ELEMENT_SET_NO = 999
REV_AT_EPOCH   = 64240
BSTAR          = .1116085E-3
MEAN_MOTION_DOT = .168E-5
MEAN_MOTION_DDOT = 0

CCSDS_OMM_VERS = 2.0
CREATION_DATE  = 
ORIGINATOR     = 

OBJECT_NAME    = SL-16 R/B
OBJECT_ID      = 1994-074B
CENTER_NAME    = EARTH
REF_FRAME      = TEME
TIME_SYSTEM    = UTC
MEAN_ELEMENT_THEORY = SGP/SGP4

EPOCH          = 2026-02-11T22:57:27.124416
MEAN_MOTION    = 14.79376942
ECCENTRICITY   = .00054622
INCLINATION    = 97.7144
RA_OF_ASC_NODE = 74.8125
ARG_OF_PERICENTER = 314.4271
MEAN_ANOMALY   = 108.7149

EPHEMERIS_TYPE = 0
CLASSIFICATION_TYPE = U
NORAD_CAT_ID   = 23343
ELEMENT_SET_NO = 999
REV_AT_EPOCH   = 68344
BSTAR          = .80052424E-4
MEAN_MOTION_DOT = .547E-5
MEAN_MOTION_DDOT = 0

CCSDS_OMM_VERS = 2.0
CREATION_DATE  = 
ORIGINATOR     = 

OBJECT_NAME    = SL-16 R/B
OBJECT_ID      = 1994-077B
CENTER_NAME    = EARTH
REF_FRAME      = TEME
TIME_SYSTEM    = UTC
MEAN_ELEMENT_THEORY = SGP/SGP4

EPOCH          = 2026-02-11T09:49:30.686016
MEAN_MOTION    = 14.15558572
ECCENTRICITY   = .00041836
INCLINATION    = 70.9819
RA_OF_ASC_NODE = 47.7771
ARG_OF_PERICENTER = 233.5739
MEAN_ANOMALY   = 126.4998

EPHEMERIS_TYPE = 0
CLASSIFICATION_TYPE = U
NORAD_CAT_ID   = 23405
ELEMENT_SET_NO = 999
REV_AT_EPOCH   = 61251
BSTAR          = .16121109E-3
MEAN_MOTION_DOT = .268E-5
MEAN_MOTION_DDOT = 0

CCSDS_OMM_VERS = 2.0
CREATION_DATE  = 
ORIGINATOR     = 

OBJECT_NAME    = ARIANE 40+ R/B
OBJECT_ID      = 1995-021B
CENTER_NAME    = EARTH
REF_FRAME      = TEME
TIME_SYSTEM    = UTC
MEAN_ELEMENT_THEORY = SGP/SGP4

EPOCH          = 2026-02-11T18:22:18.245280
MEAN_MOTION    = 14.39753129
ECCENTRICITY   = .0006244
INCLINATION    = 98.4552
RA_OF_ASC_NODE = 114.5924
ARG_OF_PERICENTER = 211.1703
MEAN_ANOMALY   = 260.2515

EPHEMERIS_TYPE = 0
CLASSIFICATION_TYPE = U
NORAD_CAT_ID   = 23561
ELEMENT_SET_NO = 999
REV_AT_EPOCH   = 61551
BSTAR          = .11148668E-3
MEAN_MOTION_DOT = .306E-5
MEAN_MOTION_DDOT = 0

CCSDS_OMM_VERS = 2.0
CREATION_DATE  = 
ORIGINATOR     = 

OBJECT_NAME    = SL-16 R/B
OBJECT_ID      = 1995-058B
CENTER_NAME    = EARTH
REF_FRAME      = TEME
TIME_SYSTEM    = UTC
MEAN_ELEMENT_THEORY = SGP/SGP4

EPOCH          = 2026-02-11T21:50:02.344704
MEAN_MOTION    = 14.15494628
ECCENTRICITY   = .00119847
INCLINATION    = 71.0194
RA_OF_ASC_NODE = 234.3786
ARG_OF_PERICENTER = 168.7895
MEAN_ANOMALY   = 191.3498

EPHEMERIS_TYPE = 0
CLASSIFICATION_TYPE = U
NORAD_CAT_ID   = 23705
ELEMENT_SET_NO = 999
REV_AT_EPOCH   = 56420
BSTAR          = .1403547E-3
MEAN_MOTION_DOT = .227E-5
MEAN_MOTION_DDOT = 0

CCSDS_OMM_VERS = 2.0
CREATION_DATE  = 
ORIGINATOR     = 

OBJECT_NAME    = SL-16 R/B
OBJECT_ID      = 1996-051B
CENTER_NAME    = EARTH
REF_FRAME      = TEME
TIME_SYSTEM    = UTC
MEAN_ELEMENT_THEORY = SGP/SGP4

EPOCH          = 2026-02-11T21:23:24.285120
MEAN_MOTION    = 14.12408253
ECCENTRICITY   = .00173058
INCLINATION    = 70.7566
RA_OF_ASC_NODE = 229.8443
ARG_OF_PERICENTER = 184.4249
MEAN_ANOMALY   = 175.6720

EPHEMERIS_TYPE = 0
CLASSIFICATION_TYPE = U
NORAD_CAT_ID   = 24298
ELEMENT_SET_NO = 999
REV_AT_EPOCH   = 51800
BSTAR          = .86247087E-4
MEAN_MOTION_DOT = .11E-5
MEAN_MOTION_DDOT = 0

CCSDS_OMM_VERS = 2.0
CREATION_DATE  = 
ORIGINATOR     = 

OBJECT_NAME    = ORBVIEW 2 (SEASTAR)
OBJECT_ID      = 1997-037A
CENTER_NAME    = EARTH
REF_FRAME      = TEME
TIME_SYSTEM    = UTC
MEAN_ELEMENT_THEORY = SGP/SGP4

EPOCH          = 2026-02-11T21:45:42.720480
MEAN_MOTION    = 14.35474985
ECCENTRICITY   = .00030619
INCLINATION    = 98.8522
RA_OF_ASC_NODE = 206.5420
ARG_OF_PERICENTER = 124.2185
MEAN_ANOMALY   = 235.9290

EPHEMERIS_TYPE = 0
CLASSIFICATION_TYPE = U
NORAD_CAT_ID   = 24883
ELEMENT_SET_NO = 999
REV_AT_EPOCH   = 50477
BSTAR          = .14789926E-3
MEAN_MOTION_DOT = .379E-5
MEAN_MOTION_DDOT = 0

